GOES 1 (SMS-C) [-]      
1 08366U 75100A   22274.51780005 -.00000230  00000+0  00000+0 0  9993
2 08366   8.0252 294.3984 0003057 261.7917 279.2047  1.00261776171481
GOES 2 [-]              
1 10061U 77048A   22274.06509038 -.00000068  00000+0  00000+0 0  9995
2 10061   9.6159 305.9751 0010380  22.6964 155.4264  0.99394038 32806
GOES 3 [-]              
1 10953U 78062A   22274.48189091 -.00000203  00000+0  00000+0 0  9992
2 10953   9.9515 310.5300 0002778 178.2493 351.2598  0.99360438115078
GOES 4 [-]              
1 11964U 80074A   22274.46830684 -.00000248  00000+0  00000+0 0  9999
2 11964  10.9167 314.3566 0031300  77.8851 101.0810  0.99231835113992
GOES 5 [-]              
1 12472U 81049A   22274.57960610 -.00000280  00000+0  00000+0 0  9998
2 12472  11.7782 325.7804 0002332 201.6027 342.4327  1.00295403109268
GOES 6 [-]              
1 14050U 83041A   22274.11019743 -.00000262  00000+0  00000+0 0  9998
2 14050  12.3495 331.1071 0004680 164.2774 199.2212  1.00277237202437
GOES 7 [-]              
1 17561U 87022A   22274.59990837 -.00000288  00000+0  00000+0 0  9993
2 17561  14.1529 347.6742 0004338  80.8708 263.0191  0.99894805113421
GOES 8 [-]              
1 23051U 94022A   22274.53926330 -.00000074  00000+0  00000+0 0  9996
2 23051  13.2671  23.4334 0004565  58.9673 322.0065  0.98906283110735
GOES 9 [-]              
1 23581U 95025A   22273.88276712  .00000040  00000+0  00000+0 0  9999
2 23581  12.7605  23.7990 0008018 119.1732 253.4096  0.98797692 99377
GOES 10 [-]             
1 24786U 97019A   22274.50382440  .00000050  00000+0  00000+0 0  9999
2 24786  11.5393  29.9974 0027170 200.0992 183.5329  0.99122479 92645
GOES 11 [-]             
1 26352U 00022A   22274.48879892  .00000075  00000+0  00000+0 0  9994
2 26352   8.9058  58.4595 0002577 139.8486  45.1905  0.99040262 39059
GOES 12 [-]             
1 26871U 01031A   22274.12028819 -.00000129  00000+0  00000+0 0  9998
2 26871   9.7054  47.4726 0003308 322.9507  50.8121  0.99139394 77337
EWS-G1 (GOES 13) [+]    
1 29155U 06018A   22274.53243765  .00000035  00000+0  00000+0 0  9995
2 29155   0.8458  95.3612 0006127 115.7584  52.4206  1.00269037 29796
GOES 14 [B]             
1 35491U 09033A   22274.60834983 -.00000095  00000+0  00000+0 0  9998
2 35491   0.3617 267.1053 0017790 306.5837 271.2716  1.00272527 48577
GOES 15 [B]             
1 36411U 10008A   22274.57998503  .00000053  00000+0  00000+0 0  9993
2 36411   0.3221 277.8354 0004376 247.6465 285.4832  1.00265238 46082
GOES 16 [+]             
1 41866U 16071A   22274.53423030 -.00000250  00000+0  00000+0 0  9993
2 41866   0.0788 287.1087 0000483 288.2362 272.0476  1.00270671 21521
GOES 17 [+]             
1 43226U 18022A   22274.56826147  .00000096  00000+0  00000+0 0  9999
2 43226   0.0686 284.7260 0000335 230.8232 281.9903  1.00272771 16836
GOES 18 [+]             
1 51850U 22021A   22274.56993475  .00000095  00000+0  00000+0 0  9993
2 51850   0.0125 313.7317 0002523 258.2953 226.4818  1.00270779  2196
